{
  "type": "FeatureCollection",
  "features": [
    {
      "type": "Feature",
      "properties": {
        "norad_id": 29486,
        "name": "GPS BIIRM-2 (PRN 31)",
        "group": "gps-ops",
        "lat": -52.26480914827528,
        "lon": 92.69147554909361,
        "alt_km": 20360.83599404748,
        "timestamp": "2025-12-03T22:42:32.894599+00:00",
        "meta_object_name": "GPS BIIRM-2 (PRN 31)",
        "meta_object_id": "2006-042A",
        "meta_epoch": "2025-12-02T13:41:33.603648",
        "meta_mean_motion": 2.00554444,
        "meta_eccentricity": 0.01073635,
        "meta_inclination": 54.6926,
        "meta_ra_of_asc_node": 159.1445,
        "meta_arg_of_pericenter": 51.7169,
        "meta_mean_anomaly": 320.193,
        "meta_ephemeris_type": 0,
        "meta_classification_type": "U",
        "meta_norad_cat_id": 29486,
        "meta_element_set_no": 999,
        "meta_rev_at_epoch": 14045,
        "meta_bstar": 0,
        "meta_mean_motion_dot": 1.17e-06,
        "meta_mean_motion_ddot": 0,
        "tle_line1": "1 29486U 06042A   25336.57052782  .00000117  00000+0  00000+0 0  9993",
        "tle_line2": "2 29486  54.6926 159.1445 0107363  51.7169 320.1930  2.00554444140451"
      },
      "geometry": {
        "type": "Point",
        "coordinates": [
          92.69147554909361,
          -52.26480914827528
        ]
      }
    },
    {
      "type": "Feature",
      "properties": {
        "norad_id": 29601,
        "name": "GPS BIIRM-3 (PRN 12)",
        "group": "gps-ops",
        "lat": -15.306179914904424,
        "lon": -149.30171228706126,
        "alt_km": 20246.161868433355,
        "timestamp": "2025-12-03T22:42:32.894609+00:00",
        "meta_object_name": "GPS BIIRM-3 (PRN 12)",
        "meta_object_id": "2006-052A",
        "meta_epoch": "2025-12-01T23:28:25.341312",
        "meta_mean_motion": 2.0057269,
        "meta_eccentricity": 0.0087496,
        "meta_inclination": 54.9731,
        "meta_ra_of_asc_node": 221.8254,
        "meta_arg_of_pericenter": 87.3285,
        "meta_mean_anomaly": 273.7543,
        "meta_ephemeris_type": 0,
        "meta_classification_type": "U",
        "meta_norad_cat_id": 29601,
        "meta_element_set_no": 999,
        "meta_rev_at_epoch": 13945,
        "meta_bstar": 0,
        "meta_mean_motion_dot": 5.5e-07,
        "meta_mean_motion_ddot": 0,
        "tle_line1": "1 29601U 06052A   25335.97807108  .00000055  00000+0  00000+0 0  9997",
        "tle_line2": "2 29601  54.9731 221.8254 0087496  87.3285 273.7543  2.00572690139454"
      },
      "geometry": {
        "type": "Point",
        "coordinates": [
          -149.30171228706126,
          -15.306179914904424
        ]
      }
    },
    {
      "type": "Feature",
      "properties": {
        "norad_id": 32260,
        "name": "GPS BIIRM-4 (PRN 15)",
        "group": "gps-ops",
        "lat": 42.277981789901546,
        "lon": -133.3046906783867,
        "alt_km": 19833.336047042223,
        "timestamp": "2025-12-03T22:42:32.894621+00:00",
        "meta_object_name": "GPS BIIRM-4 (PRN 15)",
        "meta_object_id": "2007-047A",
        "meta_epoch": "2025-12-02T18:46:05.230272",
        "meta_mean_motion": 2.00564824,
        "meta_eccentricity": 0.01643753,
        "meta_inclination": 53.9483,
        "meta_ra_of_asc_node": 88.1698,
        "meta_arg_of_pericenter": 85.1293,
        "meta_mean_anomaly": 276.722,
        "meta_ephemeris_type": 0,
        "meta_classification_type": "U",
        "meta_norad_cat_id": 32260,
        "meta_element_set_no": 999,
        "meta_rev_at_epoch": 13287,
        "meta_bstar": 0,
        "meta_mean_motion_dot": -1.7e-07,
        "meta_mean_motion_ddot": 0,
        "tle_line1": "1 32260U 07047A   25336.78200498 -.00000017  00000+0  00000+0 0  9995",
        "tle_line2": "2 32260  53.9483  88.1698 0164375  85.1293 276.7220  2.00564824132879"
      },
      "geometry": {
        "type": "Point",
        "coordinates": [
          -133.3046906783867,
          42.277981789901546
        ]
      }
    },
    {
      "type": "Feature",
      "properties": {
        "norad_id": 32384,
        "name": "GPS BIIRM-5 (PRN 29)",
        "group": "gps-ops",
        "lat": -51.25092444470886,
        "lon": 161.95653128452074,
        "alt_km": 20184.84995978982,
        "timestamp": "2025-12-03T22:42:32.894632+00:00",
        "meta_object_name": "GPS BIIRM-5 (PRN 29)",
        "meta_object_id": "2007-062A",
        "meta_epoch": "2025-12-02T20:24:02.738880",
        "meta_mean_motion": 2.00576658,
        "meta_eccentricity": 0.00322118,
        "meta_inclination": 55.191,
        "meta_ra_of_asc_node": 282.0427,
        "meta_arg_of_pericenter": 162.849,
        "meta_mean_anomaly": 16.9412,
        "meta_ephemeris_type": 0,
        "meta_classification_type": "U",
        "meta_norad_cat_id": 32384,
        "meta_element_set_no": 999,
        "meta_rev_at_epoch": 13157,
        "meta_bstar": 0,
        "meta_mean_motion_dot": -4.3e-07,
        "meta_mean_motion_ddot": 0,
        "tle_line1": "1 32384U 07062A   25336.85003170 -.00000043  00000+0  00000+0 0  9994",
        "tle_line2": "2 32384  55.1910 282.0427 0032211 162.8490  16.9412  2.00576658131576"
      },
      "geometry": {
        "type": "Point",
        "coordinates": [
          161.95653128452074,
          -51.25092444470886
        ]
      }
    },
    {
      "type": "Feature",
      "properties": {
        "norad_id": 32711,
        "name": "GPS BIIRM-6 (PRN 07)",
        "group": "gps-ops",
        "lat": 4.975134730123575,
        "lon": -25.84911957386622,
        "alt_km": 19997.637941968715,
        "timestamp": "2025-12-03T22:42:32.894642+00:00",
        "meta_object_name": "GPS BIIRM-6 (PRN 07)",
        "meta_object_id": "2008-012A",
        "meta_epoch": "2025-12-03T04:49:23.445984",
        "meta_mean_motion": 2.00565082,
        "meta_eccentricity": 0.0202076,
        "meta_inclination": 54.4757,
        "meta_ra_of_asc_node": 157.7537,
        "meta_arg_of_pericenter": 244.8436,
        "meta_mean_anomaly": 113.0855,
        "meta_ephemeris_type": 0,
        "meta_classification_type": "U",
        "meta_norad_cat_id": 32711,
        "meta_element_set_no": 999,
        "meta_rev_at_epoch": 12982,
        "meta_bstar": 0,
        "meta_mean_motion_dot": 1.08e-06,
        "meta_mean_motion_ddot": 0,
        "tle_line1": "1 32711U 08012A   25337.20096581  .00000108  00000+0  00000+0 0  9993",
        "tle_line2": "2 32711  54.4757 157.7537 0202076 244.8436 113.0855  2.00565082129824"
      },
      "geometry": {
        "type": "Point",
        "coordinates": [
          -25.84911957386622,
          4.975134730123575
        ]
      }
    },
    {
      "type": "Feature",
      "properties": {
        "norad_id": 35752,
        "name": "GPS BIIRM-8 (PRN 05)",
        "group": "gps-ops",
        "lat": -13.736590631963228,
        "lon": -135.3951244614237,
        "alt_km": 20241.021853227034,
        "timestamp": "2025-12-03T22:42:32.894653+00:00",
        "meta_object_name": "GPS BIIRM-8 (PRN 05)",
        "meta_object_id": "2009-043A",
        "meta_epoch": "2025-12-01T04:42:32.815296",
        "meta_mean_motion": 2.00566259,
        "meta_eccentricity": 0.00521242,
        "meta_inclination": 56.0822,
        "meta_ra_of_asc_node": 35.2386,
        "meta_arg_of_pericenter": 82.0997,
        "meta_mean_anomaly": 288.3285,
        "meta_ephemeris_type": 0,
        "meta_classification_type": "U",
        "meta_norad_cat_id": 35752,
        "meta_element_set_no": 999,
        "meta_rev_at_epoch": 11939,
        "meta_bstar": 0,
        "meta_mean_motion_dot": -6.6e-07,
        "meta_mean_motion_ddot": 0,
        "tle_line1": "1 35752U 09043A   25335.19621314 -.00000066  00000+0  00000+0 0  9994",
        "tle_line2": "2 35752  56.0822  35.2386 0052124  82.0997 288.3285  2.00566259119397"
      },
      "geometry": {
        "type": "Point",
        "coordinates": [
          -135.3951244614237,
          -13.736590631963228
        ]
      }
    },
    {
      "type": "Feature",
      "properties": {
        "norad_id": 36585,
        "name": "GPS BIIF-1  (PRN 25)",
        "group": "gps-ops",
        "lat": -36.1800153027477,
        "lon": -175.254633151671,
        "alt_km": 20306.58509314992,
        "timestamp": "2025-12-03T22:42:32.894663+00:00",
        "meta_object_name": "GPS BIIF-1  (PRN 25)",
        "meta_object_id": "2010-022A",
        "meta_epoch": "2025-12-03T06:19:07.093056",
        "meta_mean_motion": 2.00552613,
        "meta_eccentricity": 0.0125712,
        "meta_inclination": 54.3021,
        "meta_ra_of_asc_node": 216.4561,
        "meta_arg_of_pericenter": 64.9696,
        "meta_mean_anomaly": 116.7502,
        "meta_ephemeris_type": 0,
        "meta_classification_type": "U",
        "meta_norad_cat_id": 36585,
        "meta_element_set_no": 999,
        "meta_rev_at_epoch": 11366,
        "meta_bstar": 0,
        "meta_mean_motion_dot": 7.1e-07,
        "meta_mean_motion_ddot": 0,
        "tle_line1": "1 36585U 10022A   25337.26327654  .00000071  00000+0  00000+0 0  9993",
        "tle_line2": "2 36585  54.3021 216.4561 0125712  64.9696 116.7502  2.00552613113660"
      },
      "geometry": {
        "type": "Point",
        "coordinates": [
          -175.254633151671,
          -36.1800153027477
        ]
      }
    }
  ]
}